[{"OBJECT_NAME":"STARLINK-30886","OBJECT_ID":"2023-171S","EPOCH":"2026-03-09T22:00:01.999584","MEAN_MOTION":15.22897038,"ECCENTRICITY":0.00015613,"INCLINATION":43.0007,"RA_OF_ASC_NODE":283.7757,"ARG_OF_PERICENTER":289.0985,"MEAN_ANOMALY":343.9345,"EPHEMERIS_TYPE":0,"CLASSIFICATION_TYPE":"U","NORAD_CAT_ID":58246,"ELEMENT_SET_NO":999,"REV_AT_EPOCH":577,"BSTAR":0.048414578,"MEAN_MOTION_DOT":0.01267662,"MEAN_MOTION_DDOT":0},{"OBJECT_NAME":"SCOT-1 (SCOT)","OBJECT_ID":"2025-009J","EPOCH":"2026-03-09T23:07:08.932512","MEAN_MOTION":15.43340321,"ECCENTRICITY":0.00036129,"INCLINATION":97.3896,"RA_OF_ASC_NODE":154.5498,"ARG_OF_PERICENTER":296.5488,"MEAN_ANOMALY":63.5389,"EPHEMERIS_TYPE":0,"CLASSIFICATION_TYPE":"U","NORAD_CAT_ID":62617,"ELEMENT_SET_NO":999,"REV_AT_EPOCH":6399,"BSTAR":0.0012718549,"MEAN_MOTION_DOT":0.00056959,"MEAN_MOTION_DDOT":0}]
